COSMOS 2242             
1 22626U 93024A   26083.41215590  .00002418  00000+0  20963-3 0  9999
2 22626  82.5159 252.6298 0014917 254.5676 105.3899 14.96608599782594
SL-16 R/B               
1 22803U 93059B   26083.44011638  .00000008  00000+0  27727-4 0  9993
2 22803  70.9928 340.0230 0017672 195.2213 164.8382 14.17235379681627
ARIANE 40 R/B           
1 22830U 93061H   26083.43277628  .00000227  00000+0  99084-4 0  9996
2 22830  98.4889 152.0276 0009785 236.4133 123.6117 14.32868524696215
COSMOS 2278             
1 23087U 94023A   26083.44966491 -.00000240  00000+0 -10086-3 0  9995
2 23087  71.0530 144.2201 0008987 349.3352  10.7579 14.14377142646899
SL-16 R/B               
1 23088U 94023B   26083.20675598  .00000260  00000+0  15896-3 0  9999
2 23088  71.0005  40.3975 0005471 271.7403  88.3093 14.15011966648143
SL-16 R/B               
1 23343U 94074B   26083.55653382  .00000444  00000+0  66053-4 0  9990
2 23343  97.7088 113.7710 0006976 160.9272 359.0313 14.79424095689441
SL-16 R/B               
1 23405U 94077B   26083.39469512  .00000132  00000+0  92148-4 0  9992
2 23405  70.9842 321.5545 0002225 198.5212 161.5830 14.15568542618314
ARIANE 40+ R/B          
1 23561U 95021B   26083.47059606  .00000308  00000+0  11221-3 0  9990
2 23561  98.4472 154.7511 0007974  98.2675 272.4214 14.39782762621371
SL-16 R/B               
1 23705U 95058B   26083.47305422 -.00000163  00000+0 -59118-4 0  9999
2 23705  71.0216 149.2203 0010146  98.3985 261.8288 14.15500546569940
SL-16 R/B               
1 24298U 96051B   26083.40104707  .00000092  00000+0  76353-4 0  9996
2 24298  70.7593 144.1026 0013845 124.6492 235.5934 14.12419714523729
ORBVIEW 2 (SEASTAR)     
1 24883U 97037A   26083.40377711  .00000283  00000+0  11470-3 0  9998
2 24883  98.8593 248.1074 0002610  40.6732 319.4647 14.35504826510587
SL-16 R/B               
1 25400U 98043G   26083.39571652  .00000074  00000+0  50090-4 0  9990
2 25400  98.8280  36.8656 0009438 337.9634  22.1138 14.26053021441089
