CCSDS_OMM_VERS = 2.0
CREATION_DATE  = 
ORIGINATOR     = 

OBJECT_NAME    = COSMOS 2242
OBJECT_ID      = 1993-024A
CENTER_NAME    = EARTH
REF_FRAME      = TEME
TIME_SYSTEM    = UTC
MEAN_ELEMENT_THEORY = SGP/SGP4

EPOCH          = 2026-03-24T09:53:30.269760
MEAN_MOTION    = 14.96608599
ECCENTRICITY   = .0014917
INCLINATION    = 82.5159
RA_OF_ASC_NODE = 252.6298
ARG_OF_PERICENTER = 254.5676
MEAN_ANOMALY   = 105.3899

EPHEMERIS_TYPE = 0
CLASSIFICATION_TYPE = U
NORAD_CAT_ID   = 22626
ELEMENT_SET_NO = 999
REV_AT_EPOCH   = 78259
BSTAR          = .20963E-3
MEAN_MOTION_DOT = .2418E-4
MEAN_MOTION_DDOT = 0

CCSDS_OMM_VERS = 2.0
CREATION_DATE  = 
ORIGINATOR     = 

OBJECT_NAME    = SL-16 R/B
OBJECT_ID      = 1993-059B
CENTER_NAME    = EARTH
REF_FRAME      = TEME
TIME_SYSTEM    = UTC
MEAN_ELEMENT_THEORY = SGP/SGP4

EPOCH          = 2026-03-24T10:33:46.055232
MEAN_MOTION    = 14.17235379
ECCENTRICITY   = .0017672
INCLINATION    = 70.9928
RA_OF_ASC_NODE = 340.0230
ARG_OF_PERICENTER = 195.2213
MEAN_ANOMALY   = 164.8382

EPHEMERIS_TYPE = 0
CLASSIFICATION_TYPE = U
NORAD_CAT_ID   = 22803
ELEMENT_SET_NO = 999
REV_AT_EPOCH   = 68162
BSTAR          = .27727E-4
MEAN_MOTION_DOT = .8E-7
MEAN_MOTION_DDOT = 0

CCSDS_OMM_VERS = 2.0
CREATION_DATE  = 
ORIGINATOR     = 

OBJECT_NAME    = ARIANE 40 R/B
OBJECT_ID      = 1993-061H
CENTER_NAME    = EARTH
REF_FRAME      = TEME
TIME_SYSTEM    = UTC
MEAN_ELEMENT_THEORY = SGP/SGP4

EPOCH          = 2026-03-24T10:23:11.870592
MEAN_MOTION    = 14.32868524
ECCENTRICITY   = .0009785
INCLINATION    = 98.4889
RA_OF_ASC_NODE = 152.0276
ARG_OF_PERICENTER = 236.4133
MEAN_ANOMALY   = 123.6117

EPHEMERIS_TYPE = 0
CLASSIFICATION_TYPE = U
NORAD_CAT_ID   = 22830
ELEMENT_SET_NO = 999
REV_AT_EPOCH   = 69621
BSTAR          = .99084E-4
MEAN_MOTION_DOT = .227E-5
MEAN_MOTION_DDOT = 0

CCSDS_OMM_VERS = 2.0
CREATION_DATE  = 
ORIGINATOR     = 

OBJECT_NAME    = COSMOS 2278
OBJECT_ID      = 1994-023A
CENTER_NAME    = EARTH
REF_FRAME      = TEME
TIME_SYSTEM    = UTC
MEAN_ELEMENT_THEORY = SGP/SGP4

EPOCH          = 2026-03-24T10:47:31.048224
MEAN_MOTION    = 14.14377142
ECCENTRICITY   = .0008987
INCLINATION    = 71.0530
RA_OF_ASC_NODE = 144.2201
ARG_OF_PERICENTER = 349.3352
MEAN_ANOMALY   = 10.7579

EPHEMERIS_TYPE = 0
CLASSIFICATION_TYPE = U
NORAD_CAT_ID   = 23087
ELEMENT_SET_NO = 999
REV_AT_EPOCH   = 64689
BSTAR          = -.10086E-3
MEAN_MOTION_DOT = -.24E-5
MEAN_MOTION_DDOT = 0

CCSDS_OMM_VERS = 2.0
CREATION_DATE  = 
ORIGINATOR     = 

OBJECT_NAME    = SL-16 R/B
OBJECT_ID      = 1994-023B
CENTER_NAME    = EARTH
REF_FRAME      = TEME
TIME_SYSTEM    = UTC
MEAN_ELEMENT_THEORY = SGP/SGP4

EPOCH          = 2026-03-24T04:57:43.716672
MEAN_MOTION    = 14.15011966
ECCENTRICITY   = .0005471
INCLINATION    = 71.0005
RA_OF_ASC_NODE = 40.3975
ARG_OF_PERICENTER = 271.7403
MEAN_ANOMALY   = 88.3093

EPHEMERIS_TYPE = 0
CLASSIFICATION_TYPE = U
NORAD_CAT_ID   = 23088
ELEMENT_SET_NO = 999
REV_AT_EPOCH   = 64814
BSTAR          = .15896E-3
MEAN_MOTION_DOT = .26E-5
MEAN_MOTION_DDOT = 0

CCSDS_OMM_VERS = 2.0
CREATION_DATE  = 
ORIGINATOR     = 

OBJECT_NAME    = SL-16 R/B
OBJECT_ID      = 1994-074B
CENTER_NAME    = EARTH
REF_FRAME      = TEME
TIME_SYSTEM    = UTC
MEAN_ELEMENT_THEORY = SGP/SGP4

EPOCH          = 2026-03-24T13:21:24.522048
MEAN_MOTION    = 14.79424095
ECCENTRICITY   = .0006976
INCLINATION    = 97.7088
RA_OF_ASC_NODE = 113.7710
ARG_OF_PERICENTER = 160.9272
MEAN_ANOMALY   = 359.0313

EPHEMERIS_TYPE = 0
CLASSIFICATION_TYPE = U
NORAD_CAT_ID   = 23343
ELEMENT_SET_NO = 999
REV_AT_EPOCH   = 68944
BSTAR          = .66053E-4
MEAN_MOTION_DOT = .444E-5
MEAN_MOTION_DDOT = 0

CCSDS_OMM_VERS = 2.0
CREATION_DATE  = 
ORIGINATOR     = 

OBJECT_NAME    = SL-16 R/B
OBJECT_ID      = 1994-077B
CENTER_NAME    = EARTH
REF_FRAME      = TEME
TIME_SYSTEM    = UTC
MEAN_ELEMENT_THEORY = SGP/SGP4

EPOCH          = 2026-03-24T09:28:21.658368
MEAN_MOTION    = 14.15568542
ECCENTRICITY   = .0002225
INCLINATION    = 70.9842
RA_OF_ASC_NODE = 321.5545
ARG_OF_PERICENTER = 198.5212
MEAN_ANOMALY   = 161.5830

EPHEMERIS_TYPE = 0
CLASSIFICATION_TYPE = U
NORAD_CAT_ID   = 23405
ELEMENT_SET_NO = 999
REV_AT_EPOCH   = 61831
BSTAR          = .92148E-4
MEAN_MOTION_DOT = .132E-5
MEAN_MOTION_DDOT = 0

CCSDS_OMM_VERS = 2.0
CREATION_DATE  = 
ORIGINATOR     = 

OBJECT_NAME    = ARIANE 40+ R/B
OBJECT_ID      = 1995-021B
CENTER_NAME    = EARTH
REF_FRAME      = TEME
TIME_SYSTEM    = UTC
MEAN_ELEMENT_THEORY = SGP/SGP4

EPOCH          = 2026-03-24T11:17:39.499584
MEAN_MOTION    = 14.39782762
ECCENTRICITY   = .0007974
INCLINATION    = 98.4472
RA_OF_ASC_NODE = 154.7511
ARG_OF_PERICENTER = 98.2675
MEAN_ANOMALY   = 272.4214

EPHEMERIS_TYPE = 0
CLASSIFICATION_TYPE = U
NORAD_CAT_ID   = 23561
ELEMENT_SET_NO = 999
REV_AT_EPOCH   = 62137
BSTAR          = .11221E-3
MEAN_MOTION_DOT = .308E-5
MEAN_MOTION_DDOT = 0

CCSDS_OMM_VERS = 2.0
CREATION_DATE  = 
ORIGINATOR     = 

OBJECT_NAME    = SL-16 R/B
OBJECT_ID      = 1995-058B
CENTER_NAME    = EARTH
REF_FRAME      = TEME
TIME_SYSTEM    = UTC
MEAN_ELEMENT_THEORY = SGP/SGP4

EPOCH          = 2026-03-24T11:21:11.884608
MEAN_MOTION    = 14.15500546
ECCENTRICITY   = .0010146
INCLINATION    = 71.0216
RA_OF_ASC_NODE = 149.2203
ARG_OF_PERICENTER = 98.3985
MEAN_ANOMALY   = 261.8288

EPHEMERIS_TYPE = 0
CLASSIFICATION_TYPE = U
NORAD_CAT_ID   = 23705
ELEMENT_SET_NO = 999
REV_AT_EPOCH   = 56994
BSTAR          = -.59118E-4
MEAN_MOTION_DOT = -.163E-5
MEAN_MOTION_DDOT = 0

CCSDS_OMM_VERS = 2.0
CREATION_DATE  = 
ORIGINATOR     = 

OBJECT_NAME    = SL-16 R/B
OBJECT_ID      = 1996-051B
CENTER_NAME    = EARTH
REF_FRAME      = TEME
TIME_SYSTEM    = UTC
MEAN_ELEMENT_THEORY = SGP/SGP4

EPOCH          = 2026-03-24T09:37:30.466848
MEAN_MOTION    = 14.12419714
ECCENTRICITY   = .0013845
INCLINATION    = 70.7593
RA_OF_ASC_NODE = 144.1026
ARG_OF_PERICENTER = 124.6492
MEAN_ANOMALY   = 235.5934

EPHEMERIS_TYPE = 0
CLASSIFICATION_TYPE = U
NORAD_CAT_ID   = 24298
ELEMENT_SET_NO = 999
REV_AT_EPOCH   = 52372
BSTAR          = .76353E-4
MEAN_MOTION_DOT = .92E-6
MEAN_MOTION_DDOT = 0

CCSDS_OMM_VERS = 2.0
CREATION_DATE  = 
ORIGINATOR     = 

OBJECT_NAME    = ORBVIEW 2 (SEASTAR)
OBJECT_ID      = 1997-037A
CENTER_NAME    = EARTH
REF_FRAME      = TEME
TIME_SYSTEM    = UTC
MEAN_ELEMENT_THEORY = SGP/SGP4

EPOCH          = 2026-03-24T09:41:26.342304
MEAN_MOTION    = 14.35504826
ECCENTRICITY   = .000261
INCLINATION    = 98.8593
RA_OF_ASC_NODE = 248.1074
ARG_OF_PERICENTER = 40.6732
MEAN_ANOMALY   = 319.4647

EPHEMERIS_TYPE = 0
CLASSIFICATION_TYPE = U
NORAD_CAT_ID   = 24883
ELEMENT_SET_NO = 999
REV_AT_EPOCH   = 51058
BSTAR          = .1147E-3
MEAN_MOTION_DOT = .283E-5
MEAN_MOTION_DDOT = 0

CCSDS_OMM_VERS = 2.0
CREATION_DATE  = 
ORIGINATOR     = 

OBJECT_NAME    = SL-16 R/B
OBJECT_ID      = 1998-043G
CENTER_NAME    = EARTH
REF_FRAME      = TEME
TIME_SYSTEM    = UTC
MEAN_ELEMENT_THEORY = SGP/SGP4

EPOCH          = 2026-03-24T09:29:49.907328
MEAN_MOTION    = 14.26053021
ECCENTRICITY   = .0009438
INCLINATION    = 98.8280
RA_OF_ASC_NODE = 36.8656
ARG_OF_PERICENTER = 337.9634
MEAN_ANOMALY   = 22.1138

EPHEMERIS_TYPE = 0
CLASSIFICATION_TYPE = U
NORAD_CAT_ID   = 25400
ELEMENT_SET_NO = 999
REV_AT_EPOCH   = 44108
BSTAR          = .5009E-4
MEAN_MOTION_DOT = .74E-6
MEAN_MOTION_DDOT = 0

